      2.10          N: GNSS NAV DATA                        RINEX VERSION / TYPE
fic2rin                                 03/08/2020 00:19:55 PGM / RUN BY / DATE
                                                            END OF HEADER
 5 20  3  7 10  0  0.0-8.718110620975e-06-5.684341886081e-13 0.000000000000e+00
    9.100000000000e+01-1.240000000000e+02 4.633407285726e-09 2.771763266357e+00
   -6.468966603279e-06 5.781341926195e-03 9.151175618172e-06 5.153621822357e+03
    5.544000000000e+05-3.725290298462e-08-6.979848597453e-01-8.009374141693e-08
    9.520414351815e-01 2.001250000000e+02 7.890328740663e-01-8.013190924423e-09
   -1.746501320219e-10 1.000000000000e+00 2.095000000000e+03 0.000000000000e+00
    2.400000000000e+00 0.000000000000e+00-1.117587089539e-08 9.100000000000e+01
    5.472000000000e+05 4.000000000000e+00
 3 20  3  7 10  0  0.0-1.117317005992e-04-9.549694368616e-12 0.000000000000e+00
    4.900000000000e+01-1.470625000000e+02 4.331609000330e-09-1.231390841628e+00
   -7.547438144684e-06 2.662176149897e-03 9.907409548759e-06 5.153610795975e+03
    5.544000000000e+05 8.940696716309e-08-6.672176927293e-01 5.587935447693e-09
    9.651722470011e-01 1.930937500000e+02 7.103070187270e-01-7.968189049915e-09
   -1.632210845276e-10 1.000000000000e+00 2.095000000000e+03 0.000000000000e+00
    2.400000000000e+00 0.000000000000e+00 1.862645149231e-09 4.900000000000e+01
    5.472000000000e+05 4.000000000000e+00
 9 20  3  7 10  0  0.0-1.712348312140e-04-8.299139153678e-12 0.000000000000e+00
    2.800000000000e+01 1.506250000000e+01 4.723411034743e-09 2.409708544090e+00
    8.754432201385e-07 1.694812206551e-03 1.054257154465e-05 5.153776950836e+03
    5.544000000000e+05 5.587935447693e-08 3.636330821375e-01-1.098960638046e-07
    9.530819254249e-01 1.678750000000e+02 1.784808730916e+00-8.002119034663e-09
    5.046638784191e-10 1.000000000000e+00 2.095000000000e+03 0.000000000000e+00
    2.400000000000e+00 0.000000000000e+00 1.396983861923e-09 2.800000000000e+01
    5.472000000000e+05 4.000000000000e+00
 6 20  3  7 10  0  0.0-2.253707498312e-04-8.753886504564e-12 0.000000000000e+00
    6.300000000000e+01-1.793750000000e+01 4.507687763289e-09 6.245894653440e-02
   -1.084059476852e-06 1.940092886798e-03 7.264316082001e-07 5.153761022568e+03
    5.544000000000e+05 1.490116119385e-08-1.716933150254e+00-9.313225746155e-09
    9.783984454682e-01 3.701562500000e+02-1.102906039755e+00-8.425708107420e-09
    8.036049019412e-11 1.000000000000e+00 2.095000000000e+03 0.000000000000e+00
    2.400000000000e+00 0.000000000000e+00 4.656612873077e-09 6.300000000000e+01
    5.472000000000e+05 4.000000000000e+00
 8 20  3  7 10  0  0.0-2.624653279781e-05-1.364242052659e-12 0.000000000000e+00
    5.400000000000e+01 1.444687500000e+02 4.107671100989e-09 2.203629717337e+00
    7.450580596924e-06 5.264207022265e-03 8.594244718552e-06 5.153643690109e+03
    5.544000000000e+05-3.725290298462e-09-2.777737908642e+00 6.146728992462e-08
    9.702290895931e-01 2.174687500000e+02-1.527786192942e-01-7.997118826385e-09
    3.535861568541e-10 1.000000000000e+00 2.095000000000e+03 0.000000000000e+00
    3.400000000000e+00 0.000000000000e+00 5.122274160385e-09 5.400000000000e+01
    5.472000000000e+05 4.000000000000e+00
26 20  3  7 10  0  0.0 1.626829616725e-04 7.617018127348e-12 0.000000000000e+00
    5.000000000000e+00 7.531250000000e+00 4.536260382024e-09-2.471689681099e+00
    3.278255462646e-07 4.698119242676e-03 1.152418553829e-05 5.153583326340e+03
    5.544000000000e+05-1.117587089539e-08 2.441829366760e+00-6.146728992462e-08
    9.477176213401e-01 1.521562500000e+02 2.051733038688e-01-7.968189049915e-09
   -5.914532078287e-10 1.000000000000e+00 2.095000000000e+03 0.000000000000e+00
    2.400000000000e+00 0.000000000000e+00 7.450580596924e-09 5.000000000000e+00
    5.472000000000e+05 4.000000000000e+00
22 20  3  7 10  0  0.0-7.853629067540e-04-2.273736754432e-13 0.000000000000e+00
    3.100000000000e+01-1.556250000000e+02 5.210931341921e-09 1.099117475455e+00
   -8.132308721542e-06 7.153764134273e-03 8.642673492432e-06 5.153565485001e+03
    5.544000000000e+05 2.048909664154e-08-7.506855414317e-01-1.676380634308e-07
    9.299916112092e-01 2.013125000000e+02-1.210893599447e+00-8.505354282146e-09
   -1.989368579472e-10 1.000000000000e+00 2.095000000000e+03 0.000000000000e+00
    2.400000000000e+00 0.000000000000e+00-1.816079020500e-08 3.100000000000e+01
    5.472000000000e+05 4.000000000000e+00
16 20  3  7 10  0  0.0-1.323032192886e-04-4.206412995700e-12 0.000000000000e+00
    1.900000000000e+01 2.503125000000e+01 3.709083069626e-09 2.920284990072e+00
    1.197680830956e-06 1.149571884889e-02 1.256726682186e-05 5.153731397629e+03
    5.544000000000e+05-2.235174179077e-08 2.562376696977e+00-1.490116119385e-07
    9.796118848128e-01 1.466562500000e+02 6.099765770700e-01-7.435309710494e-09
   -5.528801725355e-10 1.000000000000e+00 2.095000000000e+03 0.000000000000e+00
    2.400000000000e+00 0.000000000000e+00-1.071020960808e-08 1.900000000000e+01
    5.472000000000e+05 4.000000000000e+00
10 20  3  7 10  0  0.0-2.691862173378e-04-1.273292582482e-11 0.000000000000e+00
    3.300000000000e+01-1.367187500000e+02 4.234819254363e-09-2.227282125641e+00
   -7.208436727524e-06 5.447996198200e-03 1.090764999390e-05 5.153676935196e+03
    5.544000000000e+05 6.519258022308e-08-6.703007135838e-01-8.940696716309e-08
    9.651352922275e-01 1.698437500000e+02-2.655237233151e+00-7.925330121811e-09
   -1.192906832215e-10 1.000000000000e+00 2.095000000000e+03 0.000000000000e+00
    2.400000000000e+00 0.000000000000e+00 1.862645149231e-09 3.300000000000e+01
    5.472000000000e+05 4.000000000000e+00
25 20  3  7 10  0  0.0-1.020682975650e-05 1.818989403546e-12 0.000000000000e+00
    2.000000000000e+01 1.043750000000e+01 4.126600460902e-09-1.810552001718e+00
    4.991888999939e-07 9.194622980431e-03 1.082383096218e-05 5.153582511902e+03
    5.544000000000e+05 1.862645149231e-07 2.475615942564e+00-1.080334186554e-07
    9.666235612141e-01 1.741875000000e+02 9.072344370873e-01-7.643532669530e-09
   -5.325221816864e-10 1.000000000000e+00 2.095000000000e+03 0.000000000000e+00
    2.400000000000e+00 0.000000000000e+00 5.587935447693e-09 2.000000000000e+01
    5.472000000000e+05 4.000000000000e+00
14 20  3  7 10  0  0.0-2.790428698063e-05 2.501110429876e-12 0.000000000000e+00
    4.400000000000e+01 2.712500000000e+01 4.608763402066e-09 1.757736799879e+00
    1.229345798492e-06 1.103853923269e-02 1.048296689987e-05 5.153619327545e+03
    5.544000000000e+05-1.322478055954e-07 4.588185345365e-01-2.197921276093e-07
    9.608309249561e-01 1.788437500000e+02-1.927370489803e+00-7.950688320939e-09
    5.978820470442e-10 1.000000000000e+00 2.095000000000e+03 0.000000000000e+00
    2.400000000000e+00 0.000000000000e+00-9.778887033463e-09 4.400000000000e+01
    5.472000000000e+05 4.000000000000e+00
21 20  3  7 10  0  0.0-3.117322921753e-05 5.229594535194e-12 0.000000000000e+00
    2.200000000000e+01-8.437500000000e+00 4.933776940185e-09-1.985540637440e+00
    2.700835466385e-07 2.487115911208e-02 3.725290298462e-08 5.153548728943e+03
    5.544000000000e+05 1.844018697739e-07-1.780652643559e+00 4.153698682785e-07
    9.517824182209e-01 3.701562500000e+02-1.354110946053e+00-8.423565161015e-09
    1.550064566411e-10 1.000000000000e+00 2.095000000000e+03 0.000000000000e+00
    2.400000000000e+00 0.000000000000e+00-1.024454832077e-08 2.200000000000e+01
    5.472000000000e+05 4.000000000000e+00
29 20  3  7 10  0  0.0-5.055544897914e-05-9.436007530894e-12 0.000000000000e+00
    6.500000000000e+01 1.202812500000e+02 3.806587131062e-09 2.376806998615e+00
    6.286427378654e-06 1.161177060567e-03 7.206574082375e-06 5.153620038986e+03
    5.544000000000e+05 5.587935447693e-09-2.694644628411e+00 9.872019290924e-08
    9.860023337664e-01 2.545625000000e+02 1.882072324278e+00-7.795324706564e-09
    3.914448766789e-10 1.000000000000e+00 2.095000000000e+03 0.000000000000e+00
    3.400000000000e+00 0.000000000000e+00-1.024454832077e-08 6.500000000000e+01
    5.472000000000e+05 4.000000000000e+00
27 20  3  7 10  0  0.0-2.315337769687e-04-1.080024958355e-11 0.000000000000e+00
    9.100000000000e+01 1.471875000000e+02 3.973022635197e-09 2.023458777706e+00
    7.554888725281e-06 7.989732781425e-03 8.421018719673e-06 5.153666503906e+03
    5.544000000000e+05-1.341104507446e-07-2.764112315984e+00 3.911554813385e-08
    9.786209831035e-01 2.250000000000e+02 5.135114166003e-01-7.979618097409e-09
    3.818016178556e-10 1.000000000000e+00 2.095000000000e+03 0.000000000000e+00
    2.400000000000e+00 0.000000000000e+00 1.396983861923e-09 9.100000000000e+01
    5.472000000000e+05 4.000000000000e+00
30 20  3  7 10  0  0.0-1.697628758848e-04-8.753886504564e-12 0.000000000000e+00
    5.600000000000e+01-2.593750000000e+00 5.501657737556e-09-8.822883776409e-01
   -2.682209014893e-07 4.322698106989e-03 4.347413778305e-06 5.153667430878e+03
    5.544000000000e+05 1.024454832077e-07 1.462116561081e+00-5.774199962616e-08
    9.385943375473e-01 2.836250000000e+02-2.927150622613e+00-8.576785828985e-09
   -2.189376910622e-10 1.000000000000e+00 2.095000000000e+03 0.000000000000e+00
    2.400000000000e+00 0.000000000000e+00 3.725290298462e-09 5.600000000000e+01
    5.472000000000e+05 4.000000000000e+00
23 20  3  7 10  0  0.0-1.314193941653e-04 2.728484105319e-12 0.000000000000e+00
    5.300000000000e+01 1.900000000000e+01 5.065210986369e-09 5.517346177100e-01
    1.313164830208e-06 1.354804926086e-02 1.073628664017e-05 5.153653652191e+03
    5.544000000000e+05-5.960464477539e-08 3.558045261953e-01 1.005828380585e-07
    9.439025138542e-01 1.662187500000e+02-2.189043366397e+00-8.390349491734e-09
    4.503759028213e-10 1.000000000000e+00 2.095000000000e+03 0.000000000000e+00
    2.400000000000e+00 0.000000000000e+00-2.002343535423e-08 5.300000000000e+01
    5.472000000000e+05 4.000000000000e+00
